HORS 1                  
1 57188U 23091Y   24199.14529373  .00010080  00000+0  62812-3 0  9993
2 57188  97.6118 251.6913 0012739  14.1973 345.9611 15.09690435 58056
VIZARD-METEO (RS38S)    
1 57189U 23091Z   24199.07618043  .00012830  00000+0  76578-3 0  9998
2 57189  97.6132 252.1421 0012077  11.4868 348.6635 15.11201568 58077
NANOZOND 1 (RS49S)      
1 57190U 23091AA  24199.15789074  .00017185  00000+0  94771-3 0  9995
2 57190  97.6104 252.8262 0010269  15.8338 344.3212 15.13997329 58139
SITRO-AIS 6 (CHIRKIN)   
1 57192U 23091AC  24199.18542848  .00010033  00000+0  63425-3 0  9993
2 57192  97.6107 251.1445 0017407  24.7165 335.4893 15.09105449 58020
SITRO-AIS 8 (ANOKHIN)   
1 57193U 23091AD  24199.14666554  .00012325  00000+0  77043-3 0  9998
2 57193  97.6112 251.1873 0017230  26.1116 334.0978 15.09464985 58020
SITRO-AIS 7 (FARTUSHNIY)
1 57194U 23091AE  24199.19134513  .00009991  00000+0  63237-3 0  9994
2 57194  97.6109 251.1298 0017360  25.6369 334.5717 15.09060923 58026
AVION KALUGA 650        
1 57195U 23091AF  24199.14866273  .00007368  00000+0  47725-3 0  9995
2 57195  97.6149 251.5277 0013457  16.9766 343.1909 15.08356884 58032
HORS 2                  
1 57196U 23091AG  24199.15979052  .00011224  00000+0  68111-3 0  9995
2 57196  97.6129 252.0418 0012611  13.8307 346.3265 15.10628795 58072
A-SEANSAT-PG1           
1 57197U 23091AH  24199.17789267  .00012596  00000+0  75474-3 0  9998
2 57197  97.6107 252.0787 0012209  16.7168 343.4462 15.11064730 58080
YARILO 3                
1 57198U 23091AJ  24199.18760283  .00029570  00000+0  14370-2 0  9994
2 57198  97.6149 253.9956 0009772  12.0541 348.0924 15.18346241 58193
SITRO-AIS 10 (BURDAEV)  
1 57199U 23091AK  24199.21317695  .00011984  00000+0  71331-3 0  9995
2 57199  97.6128 252.2448 0012019  16.2383 343.9230 15.11318142 58092
SITRO-AIS 9 (SHCHUKIN)  
1 57201U 23091AM  24199.14561417  .00012410  00000+0  73889-3 0  9999
2 57201  97.6123 252.1558 0011977  16.3948 343.7667 15.11299589 58086
UTMN 2 (RS27S)          
1 57203U 23091AP  24199.14335746  .00011657  00000+0  70639-3 0  9997
2 57203  97.6131 252.0503 0012485  11.4612 348.6899 15.10670663 58070
