[{"OBJECT_NAME":"HORS 1","OBJECT_ID":"2023-091Y","EPOCH":"2024-07-17T03:29:13.378272","MEAN_MOTION":15.09690435,"ECCENTRICITY":0.0012739,"INCLINATION":97.6118,"RA_OF_ASC_NODE":251.6913,"ARG_OF_PERICENTER":14.1973,"MEAN_ANOMALY":345.9611,"EPHEMERIS_TYPE":0,"CLASSIFICATION_TYPE":"U","NORAD_CAT_ID":57188,"ELEMENT_SET_NO":999,"REV_AT_EPOCH":5805,"BSTAR":0.00062812,"MEAN_MOTION_DOT":0.0001008,"MEAN_MOTION_DDOT":0},{"OBJECT_NAME":"VIZARD-METEO (RS38S)","OBJECT_ID":"2023-091Z","EPOCH":"2024-07-17T01:49:41.989152","MEAN_MOTION":15.11201568,"ECCENTRICITY":0.0012077,"INCLINATION":97.6132,"RA_OF_ASC_NODE":252.1421,"ARG_OF_PERICENTER":11.4868,"MEAN_ANOMALY":348.6635,"EPHEMERIS_TYPE":0,"CLASSIFICATION_TYPE":"U","NORAD_CAT_ID":57189,"ELEMENT_SET_NO":999,"REV_AT_EPOCH":5807,"BSTAR":0.00076578,"MEAN_MOTION_DOT":0.0001283,"MEAN_MOTION_DDOT":0},{"OBJECT_NAME":"NANOZOND 1 (RS49S)","OBJECT_ID":"2023-091AA","EPOCH":"2024-07-17T03:47:21.759936","MEAN_MOTION":15.13997329,"ECCENTRICITY":0.0010269,"INCLINATION":97.6104,"RA_OF_ASC_NODE":252.8262,"ARG_OF_PERICENTER":15.8338,"MEAN_ANOMALY":344.3212,"EPHEMERIS_TYPE":0,"CLASSIFICATION_TYPE":"U","NORAD_CAT_ID":57190,"ELEMENT_SET_NO":999,"REV_AT_EPOCH":5813,"BSTAR":0.00094771,"MEAN_MOTION_DOT":0.00017185,"MEAN_MOTION_DDOT":0},{"OBJECT_NAME":"SITRO-AIS 6 (CHIRKIN)","OBJECT_ID":"2023-091AC","EPOCH":"2024-07-17T04:27:01.020672","MEAN_MOTION":15.09105449,"ECCENTRICITY":0.0017407,"INCLINATION":97.6107,"RA_OF_ASC_NODE":251.1445,"ARG_OF_PERICENTER":24.7165,"MEAN_ANOMALY":335.4893,"EPHEMERIS_TYPE":0,"CLASSIFICATION_TYPE":"U","NORAD_CAT_ID":57192,"ELEMENT_SET_NO":999,"REV_AT_EPOCH":5802,"BSTAR":0.00063425,"MEAN_MOTION_DOT":0.00010033,"MEAN_MOTION_DDOT":0},{"OBJECT_NAME":"SITRO-AIS 8 (ANOKHIN)","OBJECT_ID":"2023-091AD","EPOCH":"2024-07-17T03:31:11.902656","MEAN_MOTION":15.09464985,"ECCENTRICITY":0.001723,"INCLINATION":97.6112,"RA_OF_ASC_NODE":251.1873,"ARG_OF_PERICENTER":26.1116,"MEAN_ANOMALY":334.0978,"EPHEMERIS_TYPE":0,"CLASSIFICATION_TYPE":"U","NORAD_CAT_ID":57193,"ELEMENT_SET_NO":999,"REV_AT_EPOCH":5802,"BSTAR":0.00077043,"MEAN_MOTION_DOT":0.00012325,"MEAN_MOTION_DDOT":0},{"OBJECT_NAME":"SITRO-AIS 7 (FARTUSHNIY)","OBJECT_ID":"2023-091AE","EPOCH":"2024-07-17T04:35:32.219232","MEAN_MOTION":15.09060923,"ECCENTRICITY":0.001736,"INCLINATION":97.6109,"RA_OF_ASC_NODE":251.1298,"ARG_OF_PERICENTER":25.6369,"MEAN_ANOMALY":334.5717,"EPHEMERIS_TYPE":0,"CLASSIFICATION_TYPE":"U","NORAD_CAT_ID":57194,"ELEMENT_SET_NO":999,"REV_AT_EPOCH":5802,"BSTAR":0.00063237,"MEAN_MOTION_DOT":9.991e-5,"MEAN_MOTION_DDOT":0},{"OBJECT_NAME":"AVION KALUGA 650","OBJECT_ID":"2023-091AF","EPOCH":"2024-07-17T03:34:04.459872","MEAN_MOTION":15.08356884,"ECCENTRICITY":0.0013457,"INCLINATION":97.6149,"RA_OF_ASC_NODE":251.5277,"ARG_OF_PERICENTER":16.9766,"MEAN_ANOMALY":343.1909,"EPHEMERIS_TYPE":0,"CLASSIFICATION_TYPE":"U","NORAD_CAT_ID":57195,"ELEMENT_SET_NO":999,"REV_AT_EPOCH":5803,"BSTAR":0.00047725,"MEAN_MOTION_DOT":7.368e-5,"MEAN_MOTION_DDOT":0},{"OBJECT_NAME":"HORS 2","OBJECT_ID":"2023-091AG","EPOCH":"2024-07-17T03:50:05.900928","MEAN_MOTION":15.10628795,"ECCENTRICITY":0.0012611,"INCLINATION":97.6129,"RA_OF_ASC_NODE":252.0418,"ARG_OF_PERICENTER":13.8307,"MEAN_ANOMALY":346.3265,"EPHEMERIS_TYPE":0,"CLASSIFICATION_TYPE":"U","NORAD_CAT_ID":57196,"ELEMENT_SET_NO":999,"REV_AT_EPOCH":5807,"BSTAR":0.00068111,"MEAN_MOTION_DOT":0.00011224,"MEAN_MOTION_DDOT":0},{"OBJECT_NAME":"A-SEANSAT-PG1","OBJECT_ID":"2023-091AH","EPOCH":"2024-07-17T04:16:09.926688","MEAN_MOTION":15.1106473,"ECCENTRICITY":0.0012209,"INCLINATION":97.6107,"RA_OF_ASC_NODE":252.0787,"ARG_OF_PERICENTER":16.7168,"MEAN_ANOMALY":343.4462,"EPHEMERIS_TYPE":0,"CLASSIFICATION_TYPE":"U","NORAD_CAT_ID":57197,"ELEMENT_SET_NO":999,"REV_AT_EPOCH":5808,"BSTAR":0.00075474,"MEAN_MOTION_DOT":0.00012596,"MEAN_MOTION_DDOT":0},{"OBJECT_NAME":"YARILO 3","OBJECT_ID":"2023-091AJ","EPOCH":"2024-07-17T04:30:08.884512","MEAN_MOTION":15.18346241,"ECCENTRICITY":0.0009772,"INCLINATION":97.6149,"RA_OF_ASC_NODE":253.9956,"ARG_OF_PERICENTER":12.0541,"MEAN_ANOMALY":348.0924,"EPHEMERIS_TYPE":0,"CLASSIFICATION_TYPE":"U","NORAD_CAT_ID":57198,"ELEMENT_SET_NO":999,"REV_AT_EPOCH":5819,"BSTAR":0.001437,"MEAN_MOTION_DOT":0.0002957,"MEAN_MOTION_DDOT":0},{"OBJECT_NAME":"SITRO-AIS 10 (BURDAEV)","OBJECT_ID":"2023-091AK","EPOCH":"2024-07-17T05:06:58.488480","MEAN_MOTION":15.11318142,"ECCENTRICITY":0.0012019,"INCLINATION":97.6128,"RA_OF_ASC_NODE":252.2448,"ARG_OF_PERICENTER":16.2383,"MEAN_ANOMALY":343.923,"EPHEMERIS_TYPE":0,"CLASSIFICATION_TYPE":"U","NORAD_CAT_ID":57199,"ELEMENT_SET_NO":999,"REV_AT_EPOCH":5809,"BSTAR":0.00071331,"MEAN_MOTION_DOT":0.00011984,"MEAN_MOTION_DDOT":0},{"OBJECT_NAME":"SITRO-AIS 9 (SHCHUKIN)","OBJECT_ID":"2023-091AM","EPOCH":"2024-07-17T03:29:41.064288","MEAN_MOTION":15.11299589,"ECCENTRICITY":0.0011977,"INCLINATION":97.6123,"RA_OF_ASC_NODE":252.1558,"ARG_OF_PERICENTER":16.3948,"MEAN_ANOMALY":343.7667,"EPHEMERIS_TYPE":0,"CLASSIFICATION_TYPE":"U","NORAD_CAT_ID":57201,"ELEMENT_SET_NO":999,"REV_AT_EPOCH":5808,"BSTAR":0.00073889,"MEAN_MOTION_DOT":0.0001241,"MEAN_MOTION_DDOT":0},{"OBJECT_NAME":"UTMN 2 (RS27S)","OBJECT_ID":"2023-091AP","EPOCH":"2024-07-17T03:26:26.084544","MEAN_MOTION":15.10670663,"ECCENTRICITY":0.0012485,"INCLINATION":97.6131,"RA_OF_ASC_NODE":252.0503,"ARG_OF_PERICENTER":11.4612,"MEAN_ANOMALY":348.6899,"EPHEMERIS_TYPE":0,"CLASSIFICATION_TYPE":"U","NORAD_CAT_ID":57203,"ELEMENT_SET_NO":999,"REV_AT_EPOCH":5807,"BSTAR":0.00070639,"MEAN_MOTION_DOT":0.00011657,"MEAN_MOTION_DDOT":0}]
